COMMENT,ORIGINATOR,NORAD_CAT_ID,OBJECT_NAME,OBJECT_TYPE,CLASSIFICATION_TYPE,INTLDES,EPOCH,EPOCH_MICROSECONDS,MEAN_MOTION,ECCENTRICITY,INCLINATION,RA_OF_ASC_NODE,ARG_OF_PERICENTER,MEAN_ANOMALY,EPHEMERIS_TYPE,ELEMENT_SET_NO,REV_AT_EPOCH,BSTAR,MEAN_MOTION_DOT,MEAN_MOTION_DDOT,FILE,TLE_LINE0,TLE_LINE1,TLE_LINE2,OBJECT_ID,OBJECT_NUMBER,SEMIMAJOR_AXIS,PERIOD,APOGEE,PERIGEE,DECAYED
"GENERATED VIA SPACETRACK.ORG API","18 SPCS","55102","SPACEBEE-157","PAYLOAD","U","23001CX","2024-05-02 03:22:06","333312","15.45446378","0.0007714","97.4215","189.3348","300.1731","59.8753","0","999","7403","0.0014107","0.00068","0","4304636","0 SPACEBEE-157","1 55102U 23001CX  24123.14035108  .00068000  00000-0  14107-2 0  9992","2 55102  97.4215 189.3348 0007714 300.1731  59.8753 15.45446378 74031","2023-001CX","55102","6808.204","93.177","435.321","424.817","0"
"GENERATED VIA SPACETRACK.ORG API","18 SPCS","55102","SPACEBEE-157","PAYLOAD","U","23001CX","2024-05-02 09:35:03","169536","15.45476395","0.0007713","97.4216","189.6001","299.2977","60.7501","0","999","7407","0.0014521","0.00070089","0","4305180","0 SPACEBEE-157","1 55102U 23001CX  24123.39934224  .00070089  00000-0  14521-2 0  9996","2 55102  97.4216 189.6001 0007713 299.2977  60.7501 15.45476395 74078","2023-001CX","55102","6808.116","93.175","435.232","424.730","0"
"GENERATED VIA SPACETRACK.ORG API","18 SPCS","55102","SPACEBEE-157","PAYLOAD","U","23001CX","2024-05-03 10:26:44","911392","15.45641837","0.0007721","97.4217","190.6597","294.7833","65.2612","0","999","7423","0.0013671","0.00066323","0","4305947","0 SPACEBEE-157","1 55102U 23001CX  24124.43524203  .00066323  00000-0  13671-2 0  9995","2 55102  97.4217 190.6597 0007721 294.7833  65.2612 15.45641837 74237","2023-001CX","55102","6807.630","93.165","434.751","424.239","0"
"GENERATED VIA SPACETRACK.ORG API","18 SPCS","55102","SPACEBEE-157","PAYLOAD","U","23001CX","2024-05-03 10:26:44","911392","15.45641837","0.0007721","97.4217","190.6597","294.7833","65.2612","0","999","7423","0.0013671","0.00066323","0","4306126","0 SPACEBEE-157","1 55102U 23001CX  24124.43524203  .00066323  00000-0  13671-2 0  9995","2 55102  97.4217 190.6597 0007721 294.7833  65.2612 15.45641837 74237","2023-001CX","55102","6807.630","93.165","434.751","424.239","0"
"GENERATED VIA SPACETRACK.ORG API","18 SPCS","55102","SPACEBEE-157","PAYLOAD","U","23001CX","2024-05-03 18:12:52","389216","15.45674772","0.0007787","97.4217","190.9908","293.373","66.67","0","999","7428","0.0010104","0.00048942","0","4306422","0 SPACEBEE-157","1 55102U 23001CX  24124.75893969  .00048942  00000-0  10104-2 0  9993","2 55102  97.4217 190.9908 0007787 293.3730  66.6700 15.45674772 74281","2023-001CX","55102","6807.533","93.163","434.699","424.097","0"
"GENERATED VIA SPACETRACK.ORG API","18 SPCS","55102","SPACEBEE-157","PAYLOAD","U","23001CX","2024-05-04 03:32:12","413760","15.45721072","0.0007788","97.4216","191.3876","291.1349","68.9067","0","999","7434","0.001199","0.00058255","0","4306988","0 SPACEBEE-157","1 55102U 23001CX  24125.14736590  .00058255  00000-0  11990-2 0  9995","2 55102  97.4216 191.3876 0007788 291.1349  68.9067 15.45721072 74346","2023-001CX","55102","6807.397","93.160","434.564","423.961","0"
"GENERATED VIA SPACETRACK.ORG API","18 SPCS","55102","SPACEBEE-157","PAYLOAD","U","23001CX","2024-05-05 02:50:28","390560","15.45837608","0.0007891","97.4219","192.3813","287.3227","72.7158","0","999","7449","0.0014038","0.00068585","0","4307968","0 SPACEBEE-157","1 55102U 23001CX  24126.11838415  .00068585  00000-0  14038-2 0  9995","2 55102  97.4219 192.3813 0007891 287.3227  72.7158 15.45837608 74491","2023-001CX","55102","6807.055","93.153","434.291","423.549","0"
"GENERATED VIA SPACETRACK.ORG API","18 SPCS","55102","SPACEBEE-157","PAYLOAD","U","23001CX","2024-05-05 15:16:10","437024","15.45894063","0.0007952","97.4219","192.9115","285.3465","74.6905","0","999","7457","0.0013089","0.0006403","0","4308191","0 SPACEBEE-157","1 55102U 23001CX  24126.63623191  .00064030  00000-0  13089-2 0  9991","2 55102  97.4219 192.9115 0007952 285.3465  74.6905 15.45894063 74570","2023-001CX","55102","6806.889","93.150","434.167","423.341","0"
"GENERATED VIA SPACETRACK.ORG API","18 SPCS","55102","SPACEBEE-157","PAYLOAD","U","23001CX","2024-05-05 15:16:10","437024","15.45894063","0.0007952","97.4219","192.9115","285.3465","74.6905","0","999","7457","0.0013089","0.0006403","0","4308260","0 SPACEBEE-157","1 55102U 23001CX  24126.63623191  .00064030  00000-0  13089-2 0  9991","2 55102  97.4219 192.9115 0007952 285.3465  74.6905 15.45894063 74570","2023-001CX","55102","6806.889","93.150","434.167","423.341","0"
"GENERATED VIA SPACETRACK.ORG API","18 SPCS","55102","SPACEBEE-157","PAYLOAD","U","23001CX","2024-05-06 03:41:50","706240","15.45961664","0.0007988","97.4219","193.4409","282.653","77.3826","0","999","7465","0.001517","0.00074496","0","4309126","0 SPACEBEE-157","1 55102U 23001CX  24127.15405910  .00074496  00000-0  15170-2 0  9996","2 55102  97.4219 193.4409 0007988 282.6530  77.3826 15.45961664 74657","2023-001CX","55102","6806.691","93.146","433.993","423.119","0"
"GENERATED VIA SPACETRACK.ORG API","18 SPCS","55102","SPACEBEE-157","PAYLOAD","U","23001CX","2024-05-06 03:41:50","706240","15.45961664","0.0007988","97.4219","193.4409","282.653","77.3826","0","999","7465","0.001517","0.00074496","0","4309203","0 SPACEBEE-157","1 55102U 23001CX  24127.15405910  .00074496  00000-0  15170-2 0  9996","2 55102  97.4219 193.4409 0007988 282.6530  77.3826 15.45961664 74657","2023-001CX","55102","6806.691","93.146","433.993","423.119","0"
"GENERATED VIA SPACETRACK.ORG API","18 SPCS","55102","SPACEBEE-157","PAYLOAD","U","23001CX","2024-05-06 22:20:16","813824","15.46080245","0.0007982","97.4215","194.2359","279.1055","80.9291","0","999","7477","0.0015353","0.00075714","0","4309210","0 SPACEBEE-157","1 55102U 23001CX  24127.93075016  .00075714  00000-0  15353-2 0  9999","2 55102  97.4215 194.2359 0007982 279.1055  80.9291 15.46080245 74770","2023-001CX","55102","6806.343","93.139","433.641","422.775","0"
"GENERATED VIA SPACETRACK.ORG API","18 SPCS","55102","SPACEBEE-157","PAYLOAD","U","23001CX","2024-05-07 02:59:52","526400","15.46116562","0.0008021","97.4216","194.4348","278.4165","81.6174","0","999","7480","0.0016188","0.0007998","0","4309405","0 SPACEBEE-157","1 55102U 23001CX  24128.12491350  .00079980  00000-0  16188-2 0  9990","2 55102  97.4216 194.4348 0008021 278.4165  81.6174 15.46116562 74804","2023-001CX","55102","6806.236","93.137","433.561","422.642","0"
"GENERATED VIA SPACETRACK.ORG API","18 SPCS","55102","SPACEBEE-157","PAYLOAD","U","23001CX","2024-05-07 10:45:51","429888","15.46166967","0.0008014","97.4214","194.7665","277.3728","82.661","0","999","7485","0.002119","0.00105238","0","4309871","0 SPACEBEE-157","1 55102U 23001CX  24128.44851192  .00105238  00000-0  21190-2 0  9994","2 55102  97.4214 194.7665 0008014 277.3728  82.6610 15.46166967 74857","2023-001CX","55102","6806.088","93.134","433.408","422.499","0"
"GENERATED VIA SPACETRACK.ORG API","18 SPCS","55102","SPACEBEE-157","PAYLOAD","U","23001CX","2024-05-07 15:25:26","449536","15.46179037","0.0008029","97.4212","194.9653","276.9974","83.0362","0","999","7488","0.0013666","0.00067543","0","4310069","0 SPACEBEE-157","1 55102U 23001CX  24128.64266724  .00067543  00000-0  13666-2 0  9992","2 55102  97.4212 194.9653 0008029 276.9974  83.0362 15.46179037 74882","2023-001CX","55102","6806.053","93.133","433.382","422.453","0"
"GENERATED VIA SPACETRACK.ORG API","18 SPCS","55102","SPACEBEE-157","PAYLOAD","U","23001CX","2024-05-07 21:38:12","600672","15.46216937","0.0008079","97.4212","195.2299","275.4939","84.5389","0","999","7492","0.0014374","0.00071173","0","4310193","0 SPACEBEE-157","1 55102U 23001CX  24128.90153473  .00071173  00000-0  14374-2 0  9998","2 55102  97.4212 195.2299 0008079 275.4939  84.5389 15.46216937 74923","2023-001CX","55102","6805.942","93.131","433.305","422.308","0"
"GENERATED VIA SPACETRACK.ORG API","18 SPCS","55102","SPACEBEE-157","PAYLOAD","U","23001CX","2024-05-08 03:50:58","265376","15.46254807","0.0008117","97.4209","195.4949","274.1819","85.8502","0","999","7496","0.0013637","0.00067577","0","4310854","0 SPACEBEE-157","1 55102U 23001CX  24129.16039659  .00067577  00000-0  13637-2 0  9990","2 55102  97.4209 195.4949 0008117 274.1819  85.8502 15.46254807 74962","2023-001CX","55102","6805.831","93.128","433.220","422.171","0"
"GENERATED VIA SPACETRACK.ORG API","18 SPCS","55102","SPACEBEE-157","PAYLOAD","U","23001CX","2024-05-08 17:49:39","121824","15.46336927","0.0008205","97.4204","196.0915","272.6291","87.4019","0","999","7505","0.0015294","0.00076097","0","4311034","0 SPACEBEE-157","1 55102U 23001CX  24129.74281391  .00076097  00000-0  15294-2 0  9994","2 55102  97.4204 196.0915 0008205 272.6291  87.4019 15.46336927 75058","2023-001CX","55102","6805.590","93.123","433.039","421.871","0"
"GENERATED VIA SPACETRACK.ORG API","18 SPCS","55102","SPACEBEE-157","PAYLOAD","U","23001CX","2024-05-08 17:49:39","121824","15.46336927","0.0008205","97.4204","196.0915","272.6291","87.4019","0","999","7505","0.0015294","0.00076097","0","4311154","0 SPACEBEE-157","1 55102U 23001CX  24129.74281391  .00076097  00000-0  15294-2 0  9994","2 55102  97.4204 196.0915 0008205 272.6291  87.4019 15.46336927 75058","2023-001CX","55102","6805.590","93.123","433.039","421.871","0"
"GENERATED VIA SPACETRACK.ORG API","18 SPCS","55102","SPACEBEE-157","PAYLOAD","U","23001CX","2024-05-09 03:08:44","714976","15.46399136","0.0008242","97.4205","196.4888","270.6811","89.3494","0","999","7511","0.001563","0.00077956","0","4311785","0 SPACEBEE-157","1 55102U 23001CX  24130.13107309  .00077956  00000-0  15630-2 0  9994","2 55102  97.4205 196.4888 0008242 270.6811  89.3494 15.46399136 75115","2023-001CX","55102","6805.407","93.120","432.881","421.663","0"
